[{"ORDINAL":"1","COMMENT":"GENERATED VIA SPACETRACK.ORG API","ORIGINATOR":"JSPOC","NORAD_CAT_ID":"25509","OBJECT_NAME":"SEDSAT 1","OBJECT_TYPE":"PAYLOAD","CLASSIFICATION_TYPE":"U","INTLDES":"98061B","EPOCH":"2018-10-11 20:25:54","EPOCH_MICROSECONDS":"116256","MEAN_MOTION":"14.30348174","ECCENTRICITY":"0.0346897","INCLINATION":"31.4334","RA_OF_ASC_NODE":"212.9447","ARG_OF_PERICENTER":"269.3868","MEAN_ANOMALY":"86.7004","EPHEMERIS_TYPE":"0","ELEMENT_SET_NO":"999","REV_AT_EPOCH":"4363","BSTAR":"-6.3304e-06","MEAN_MOTION_DOT":"4e-07","MEAN_MOTION_DDOT":"0","FILE":"2344207","TLE_LINE0":"0 SEDSAT 1","TLE_LINE1":"1 25509U 98061B   18284.85132079 +.00000040 +00000-0 -63304-5 0  9999","TLE_LINE2":"2 25509 031.4334 212.9447 0346897 269.3868 086.7004 14.30348174043635","OBJECT_ID":"1998-061B","OBJECT_NUMBER":"25509","SEMIMAJOR_AXIS":"7168.704","PERIOD":"100.674","APOGEE":"1039.249","PERIGEE":"541.889"},{"ORDINAL":"1","COMMENT":"GENERATED VIA SPACETRACK.ORG API","ORIGINATOR":"JSPOC","NORAD_CAT_ID":"25520","OBJECT_NAME":"PAN SAT","OBJECT_TYPE":"PAYLOAD","CLASSIFICATION_TYPE":"U","INTLDES":"98064B","EPOCH":"2018-10-12 09:52:37","EPOCH_MICROSECONDS":"210656","MEAN_MOTION":"15.28956158","ECCENTRICITY":"0.0004909","INCLINATION":"28.4591","RA_OF_ASC_NODE":"298.3579","ARG_OF_PERICENTER":"314.1119","MEAN_ANOMALY":"45.9072","EPHEMERIS_TYPE":"0","ELEMENT_SET_NO":"999","REV_AT_EPOCH":"10815","BSTAR":"2.4306e-05","MEAN_MOTION_DOT":"9.27e-06","MEAN_MOTION_DDOT":"0","FILE":"2344100","TLE_LINE0":"0 PAN SAT","TLE_LINE1":"1 25520U 98064B   18285.41154179  .00000927  00000-0  24306-4 0  9994","TLE_LINE2":"2 25520  28.4591 298.3579 0004909 314.1119  45.9072 15.28956158108152","OBJECT_ID":"1998-064B","OBJECT_NUMBER":"25520","SEMIMAJOR_AXIS":"6857.068","PERIOD":"94.181","APOGEE":"482.299","PERIGEE":"475.567"},{"ORDINAL":"1","COMMENT":"GENERATED VIA SPACETRACK.ORG API","ORIGINATOR":"JSPOC","NORAD_CAT_ID":"25544","OBJECT_NAME":"ISS (ZARYA)","OBJECT_TYPE":"PAYLOAD","CLASSIFICATION_TYPE":"U","INTLDES":"98067A","EPOCH":"2018-10-12 15:26:27","EPOCH_MICROSECONDS":"645792","MEAN_MOTION":"15.53813372","ECCENTRICITY":"0.0003517","INCLINATION":"51.6412","RA_OF_ASC_NODE":"153.3949","ARG_OF_PERICENTER":"275.8456","MEAN_ANOMALY":"137.9883","EPHEMERIS_TYPE":"0","ELEMENT_SET_NO":"999","REV_AT_EPOCH":"13678","BSTAR":"4.2374e-05","MEAN_MOTION_DOT":"2.296e-05","MEAN_MOTION_DDOT":"0","FILE":"2344196","TLE_LINE0":"0 ISS (ZARYA)","TLE_LINE1":"1 25544U 98067A   18285.64337553  .00002296  00000-0  42374-4 0  9993","TLE_LINE2":"2 25544  51.6412 153.3949 0003517 275.8456 137.9883 15.53813372136780","OBJECT_ID":"1998-067A","OBJECT_NUMBER":"25544","SEMIMAJOR_AXIS":"6783.741","PERIOD":"92.675","APOGEE":"407.992","PERIGEE":"403.220"},{"ORDINAL":"1","COMMENT":"GENERATED VIA SPACETRACK.ORG API","ORIGINATOR":"JSPOC","NORAD_CAT_ID":"25635","OBJECT_NAME":"ORSTED","OBJECT_TYPE":"PAYLOAD","CLASSIFICATION_TYPE":"U","INTLDES":"99008B","EPOCH":"2018-10-12 10:46:13","EPOCH_MICROSECONDS":"448064","MEAN_MOTION":"14.48106154","ECCENTRICITY":"0.0139716","INCLINATION":"96.4559","RA_OF_ASC_NODE":"82.8857","ARG_OF_PERICENTER":"148.5781","MEAN_ANOMALY":"212.386","EPHEMERIS_TYPE":"0","ELEMENT_SET_NO":"999","REV_AT_EPOCH":"3602","BSTAR":"2.3504e-05","MEAN_MOTION_DOT":"6.8e-07","MEAN_MOTION_DDOT":"0","FILE":"2344078","TLE_LINE0":"0 ORSTED","TLE_LINE1":"1 25635U 99008B   18285.44876676  .00000068  00000-0  23504-4 0  9991","TLE_LINE2":"2 25635  96.4559  82.8857 0139716 148.5781 212.3860 14.48106154 36027","OBJECT_ID":"1999-008B","OBJECT_NUMBER":"25635","SEMIMAJOR_AXIS":"7109.977","PERIOD":"99.440","APOGEE":"831.180","PERIGEE":"632.504"},{"ORDINAL":"1","COMMENT":"GENERATED VIA SPACETRACK.ORG API","ORIGINATOR":"JSPOC","NORAD_CAT_ID":"25636","OBJECT_NAME":"SUNSAT","OBJECT_TYPE":"PAYLOAD","CLASSIFICATION_TYPE":"U","INTLDES":"99008C","EPOCH":"2018-10-12 10:00:23","EPOCH_MICROSECONDS":"177952","MEAN_MOTION":"14.44665719","ECCENTRICITY":"0.0144268","INCLINATION":"96.47","RA_OF_ASC_NODE":"64.6525","ARG_OF_PERICENTER":"232.422","MEAN_ANOMALY":"126.3803","EPHEMERIS_TYPE":"0","ELEMENT_SET_NO":"999","REV_AT_EPOCH":"3439","BSTAR":"1.3933e-05","MEAN_MOTION_DOT":"2.2e-07","MEAN_MOTION_DDOT":"0","FILE":"2344079","TLE_LINE0":"0 SUNSAT","TLE_LINE1":"1 25636U 99008C   18285.41693493  .00000022  00000-0  13933-4 0  9998","TLE_LINE2":"2 25636  96.4700  64.6525 0144268 232.4220 126.3803 14.44665719 34397","OBJECT_ID":"1999-008C","OBJECT_NUMBER":"25636","SEMIMAJOR_AXIS":"7121.261","PERIOD":"99.677","APOGEE":"845.863","PERIGEE":"640.389"},{"ORDINAL":"1","COMMENT":"GENERATED VIA SPACETRACK.ORG API","ORIGINATOR":"JSPOC","NORAD_CAT_ID":"25693","OBJECT_NAME":"OSCAR 36 (UOSAT 12)","OBJECT_TYPE":"PAYLOAD","CLASSIFICATION_TYPE":"U","INTLDES":"99021A","EPOCH":"2018-10-12 12:38:46","EPOCH_MICROSECONDS":"630176","MEAN_MOTION":"14.80815487","ECCENTRICITY":"0.0045695","INCLINATION":"64.5552","RA_OF_ASC_NODE":"78.9606","ARG_OF_PERICENTER":"249.4094","MEAN_ANOMALY":"110.2106","EPHEMERIS_TYPE":"0","ELEMENT_SET_NO":"999","REV_AT_EPOCH":"5158","BSTAR":"1.2767e-05","MEAN_MOTION_DOT":"-5e-07","MEAN_MOTION_DDOT":"0","FILE":"2344006","TLE_LINE0":"0 OSCAR 36 (UOSAT 12)","TLE_LINE1":"1 25693U 99021A   18285.52692859 -.00000050  00000-0  12767-4 0  9999","TLE_LINE2":"2 25693  64.5552  78.9606 0045695 249.4094 110.2106 14.80815487 51587","OBJECT_ID":"1999-021A","OBJECT_NUMBER":"25693","SEMIMAJOR_AXIS":"7004.888","PERIOD":"97.243","APOGEE":"658.762","PERIGEE":"594.744"},{"ORDINAL":"1","COMMENT":"GENERATED VIA SPACETRACK.ORG API","ORIGINATOR":"JSPOC","NORAD_CAT_ID":"25756","OBJECT_NAME":"KITSAT 3","OBJECT_TYPE":"PAYLOAD","CLASSIFICATION_TYPE":"U","INTLDES":"99029A","EPOCH":"2018-10-11 19:32:03","EPOCH_MICROSECONDS":"681600","MEAN_MOTION":"14.53729593","ECCENTRICITY":"0.0013267","INCLINATION":"98.4238","RA_OF_ASC_NODE":"211.7782","ARG_OF_PERICENTER":"198.5656","MEAN_ANOMALY":"161.5058","EPHEMERIS_TYPE":"0","ELEMENT_SET_NO":"999","REV_AT_EPOCH":"2726","BSTAR":"1.5705e-05","MEAN_MOTION_DOT":"1.9e-07","MEAN_MOTION_DDOT":"0","FILE":"2344207","TLE_LINE0":"0 KITSAT 3","TLE_LINE1":"1 25756U 99029A   18284.81393150 +.00000019 +00000-0 +15705-4 0  9999","TLE_LINE2":"2 25756 098.4238 211.7782 0013267 198.5656 161.5058 14.53729593027269","OBJECT_ID":"1999-029A","OBJECT_NUMBER":"25756","SEMIMAJOR_AXIS":"7091.630","PERIOD":"99.055","APOGEE":"722.903","PERIGEE":"704.086"},{"ORDINAL":"1","COMMENT":"GENERATED VIA SPACETRACK.ORG API","ORIGINATOR":"JSPOC","NORAD_CAT_ID":"25757","OBJECT_NAME":"TUBSAT","OBJECT_TYPE":"PAYLOAD","CLASSIFICATION_TYPE":"U","INTLDES":"99029B","EPOCH":"2018-10-12 11:07:09","EPOCH_MICROSECONDS":"269472","MEAN_MOTION":"14.51389971","ECCENTRICITY":"0.0013018","INCLINATION":"98.4039","RA_OF_ASC_NODE":"202.4277","ARG_OF_PERICENTER":"264.8541","MEAN_ANOMALY":"95.1168","EPHEMERIS_TYPE":"0","ELEMENT_SET_NO":"999","REV_AT_EPOCH":"2642","BSTAR":"6.5667e-06","MEAN_MOTION_DOT":"-2e-07","MEAN_MOTION_DDOT":"0","FILE":"2344185","TLE_LINE0":"0 TUBSAT","TLE_LINE1":"1 25757U 99029B   18285.46330173 -.00000020  00000-0  65667-5 0  9994","TLE_LINE2":"2 25757  98.4039 202.4277 0013018 264.8541  95.1168 14.51389971 26420","OBJECT_ID":"1999-029B","OBJECT_NUMBER":"25757","SEMIMAJOR_AXIS":"7099.249","PERIOD":"99.215","APOGEE":"730.356","PERIGEE":"711.872"},{"ORDINAL":"1","COMMENT":"GENERATED VIA SPACETRACK.ORG API","ORIGINATOR":"JSPOC","NORAD_CAT_ID":"25758","OBJECT_NAME":"IRS P4 (OCEANSAT 1)","OBJECT_TYPE":"PAYLOAD","CLASSIFICATION_TYPE":"U","INTLDES":"99029C","EPOCH":"2018-10-12 06:06:52","EPOCH_MICROSECONDS":"723296","MEAN_MOTION":"14.52443251","ECCENTRICITY":"0.0002737","INCLINATION":"98.1118","RA_OF_ASC_NODE":"354.0026","ARG_OF_PERICENTER":"193.8792","MEAN_ANOMALY":"166.2329","EPHEMERIS_TYPE":"0","ELEMENT_SET_NO":"999","REV_AT_EPOCH":"2670","BSTAR":"2.09e-05","MEAN_MOTION_DOT":"4.2e-07","MEAN_MOTION_DDOT":"0","FILE":"2344063","TLE_LINE0":"0 IRS P4 (OCEANSAT 1)","TLE_LINE1":"1 25758U 99029C   18285.25477689  .00000042  00000-0  20900-4 0  9999","TLE_LINE2":"2 25758  98.1118 354.0026 0002737 193.8792 166.2329 14.52443251 26700","OBJECT_ID":"1999-029C","OBJECT_NUMBER":"25758","SEMIMAJOR_AXIS":"7095.816","PERIOD":"99.143","APOGEE":"719.623","PERIGEE":"715.739"},{"ORDINAL":"1","COMMENT":"GENERATED VIA SPACETRACK.ORG API","ORIGINATOR":"JSPOC","NORAD_CAT_ID":"26548","OBJECT_NAME":"TIUNGSAT 1","OBJECT_TYPE":"PAYLOAD","CLASSIFICATION_TYPE":"U","INTLDES":"00057D","EPOCH":"2018-10-12 09:53:09","EPOCH_MICROSECONDS":"328992","MEAN_MOTION":"14.89234544","ECCENTRICITY":"0.0022697","INCLINATION":"64.5502","RA_OF_ASC_NODE":"294.4232","ARG_OF_PERICENTER":"325.4177","MEAN_ANOMALY":"34.5454","EPHEMERIS_TYPE":"0","ELEMENT_SET_NO":"999","REV_AT_EPOCH":"97790","BSTAR":"2.4098e-05","MEAN_MOTION_DOT":"7.3e-07","MEAN_MOTION_DDOT":"0","FILE":"2344180","TLE_LINE0":"0 TIUNGSAT 1","TLE_LINE1":"1 26548U 00057D   18285.41191353  .00000073  00000-0  24098-4 0  9995","TLE_LINE2":"2 26548  64.5502 294.4232 0022697 325.4177  34.5454 14.89234544977901","OBJECT_ID":"2000-057D","OBJECT_NUMBER":"26548","SEMIMAJOR_AXIS":"6978.462","PERIOD":"96.693","APOGEE":"616.166","PERIGEE":"584.488"},{"ORDINAL":"1","COMMENT":"GENERATED VIA SPACETRACK.ORG API","ORIGINATOR":"JSPOC","NORAD_CAT_ID":"26609","OBJECT_NAME":"AMSAT OSCAR 40","OBJECT_TYPE":"PAYLOAD","CLASSIFICATION_TYPE":"U","INTLDES":"00072B","EPOCH":"2018-10-11 16:06:45","EPOCH_MICROSECONDS":"740736","MEAN_MOTION":"1.25587404","ECCENTRICITY":"0.7979831","INCLINATION":"6.407","RA_OF_ASC_NODE":"118.3722","ARG_OF_PERICENTER":"309.4671","MEAN_ANOMALY":"3.6511","EPHEMERIS_TYPE":"0","ELEMENT_SET_NO":"999","REV_AT_EPOCH":"8239","BSTAR":"0","MEAN_MOTION_DOT":"-2.02e-06","MEAN_MOTION_DDOT":"0","FILE":"2344047","TLE_LINE0":"0 AMSAT OSCAR 40","TLE_LINE1":"1 26609U 00072B   18284.67136274 -.00000202  00000-0  00000+0 0  9995","TLE_LINE2":"2 26609   6.4070 118.3722 7979831 309.4671   3.6511  1.25587404 82394","OBJECT_ID":"2000-072B","OBJECT_NUMBER":"26609","SEMIMAJOR_AXIS":"36288.675","PERIOD":"1146.611","APOGEE":"58868.290","PERIGEE":"952.790"}]